{
  "norad_id": 57872,
  "name": "STARLINK-30446",
  "history": [
    {
      "epoch": "2026-03-28T12:34:22.469952",
      "apogee_km": 484.46053186888,
      "perigee_km": 481.6378398720126,
      "latitude_deg": 22.523717268451282,
      "longitude_deg": 17.491633280180395,
      "semi_major_axis_km": 6861.186185870446,
      "eccentricity": 0.0002057,
      "inclination_deg": 43.0037,
      "raan_deg": 164.705,
      "arg_perigee_deg": 255.762,
      "mean_anomaly_deg": 104.3003,
      "mean_motion_rev_day": 15.2757997
    }
  ]
}